{"type": "FeatureCollection", "features": [ {"type": "Feature", "properties": {"norad_id": 40697, "name": "SENTINEL-2A", "group": "resource", "lat": 37.43232072364154, "lon": 48.4184051659101, "alt_km": 785.8074148109608, "timestamp": "2025-12-08T10:52:02.606611+00:00", "meta": {"OBJECT_NAME": "SENTINEL-2A", "OBJECT_ID": "2015-028A", "EPOCH": "2025-12-07T22:56:33.073440", "MEAN_MOTION": 14.30824413, "ECCENTRICITY": 0.00010261, "INCLINATION": 98.5699, "RA_OF_ASC_NODE": 54.5569, "ARG_OF_PERICENTER": 94.5262, "MEAN_ANOMALY": 265.6038, "EPHEMERIS_TYPE": 0, "CLASSIFICATION_TYPE": "U", "NORAD_CAT_ID": 40697, "ELEMENT_SET_NO": 999, "REV_AT_EPOCH": 54638, "BSTAR": 0.00012249654, "MEAN_MOTION_DOT": 2.77e-06, "MEAN_MOTION_DDOT": 0}, "tle": {"line1": "1 40697U 15028A   25341.95593835  .00000277  00000+0  12250-3 0  9992", "line2": "2 40697  98.5699  54.5569 0001026  94.5262 265.6038 14.30824413546381"}}, "geometry": {"type": "Point", "coordinates": [48.4184051659101, 37.43232072364154]}}, {"type": "Feature", "properties": {"norad_id": 40701, "name": "GAOFEN-8", "group": "resource", "lat": -46.276272098176584, "lon": -27.73838543695988, "alt_km": 455.67910699112235, "timestamp": "2025-12-08T10:52:02.606621+00:00", "meta": {"OBJECT_NAME": "GAOFEN-8", "OBJECT_ID": "2015-030A", "EPOCH": "2025-12-07T22:57:26.834112", "MEAN_MOTION": 15.3831091, "ECCENTRICITY": 0.00114236, "INCLINATION": 97.6912, "RA_OF_ASC_NODE": 159.8648, "ARG_OF_PERICENTER": 154.7541, "MEAN_ANOMALY": 205.4264, "EPHEMERIS_TYPE": 0, "CLASSIFICATION_TYPE": "U", "NORAD_CAT_ID": 40701, "ELEMENT_SET_NO": 999, "REV_AT_EPOCH": 58197, "BSTAR": 0.00057651226, "MEAN_MOTION_DOT": 0.00021763, "MEAN_MOTION_DDOT": 0}, "tle": {"line1": "1 40701U 15030A   25341.95656058  .00021763  00000+0  57651-3 0  9995", "line2": "2 40701  97.6912 159.8648 0011423 154.7541 205.4264 15.38310910581971"}}, "geometry": {"type": "Point", "coordinates": [-27.73838543695988, -46.276272098176584]}}, {"type": "Feature", "properties": {"norad_id": 40718, "name": "CARBONITE 1 (CBNT-1)", "group": "resource", "lat": -62.39450684651712, "lon": 178.5605991398276, "alt_km": 629.8397676179038, "timestamp": "2025-12-08T10:52:02.606632+00:00", "meta": {"OBJECT_NAME": "CARBONITE 1 (CBNT-1)", "OBJECT_ID": "2015-032D", "EPOCH": "2025-12-07T22:11:46.175136", "MEAN_MOTION": 14.8270868, "ECCENTRICITY": 0.00141229, "INCLINATION": 97.6403, "RA_OF_ASC_NODE": 163.1813, "ARG_OF_PERICENTER": 197.4332, "MEAN_ANOMALY": 162.6399, "EPHEMERIS_TYPE": 0, "CLASSIFICATION_TYPE": "U", "NORAD_CAT_ID": 40718, "ELEMENT_SET_NO": 999, "REV_AT_EPOCH": 56099, "BSTAR": 0.00045660358, "MEAN_MOTION_DOT": 3.641e-05, "MEAN_MOTION_DDOT": 0}, "tle": {"line1": "1 40718U 15032D   25341.92483999  .00003641  00000+0  45660-3 0  9996", "line2": "2 40718  97.6403 163.1813 0014122 197.4332 162.6399 14.82708680560992"}}, "geometry": {"type": "Point", "coordinates": [178.5605991398276, -62.39450684651712]}}, {"type": "Feature", "properties": {"norad_id": 40878, "name": "YAOGAN-27", "group": "resource", "lat": 41.98142398381406, "lon": -36.96261183682534, "alt_km": 1197.7788874179014, "timestamp": "2025-12-08T10:52:02.606642+00:00", "meta": {"OBJECT_NAME": "YAOGAN-27", "OBJECT_ID": "2015-040A", "EPOCH": "2025-12-07T23:42:13.020480", "MEAN_MOTION": 13.16060047, "ECCENTRICITY": 0.00076661, "INCLINATION": 100.1008, "RA_OF_ASC_NODE": 331.8227, "ARG_OF_PERICENTER": 298.4422, "MEAN_ANOMALY": 61.5919, "EPHEMERIS_TYPE": 0, "CLASSIFICATION_TYPE": "U", "NORAD_CAT_ID": 40878, "ELEMENT_SET_NO": 999, "REV_AT_EPOCH": 49251, "BSTAR": 5.4450837e-05, "MEAN_MOTION_DOT": -2.2e-07, "MEAN_MOTION_DDOT": 0}, "tle": {"line1": "1 40878U 15040A   25341.98765070 -.00000022  00000+0  54451-4 0  9991", "line2": "2 40878 100.1008 331.8227 0007666 298.4422  61.5919 13.16060047492511"}}, "geometry": {"type": "Point", "coordinates": [-36.96261183682534, 41.98142398381406]}}, {"type": "Feature", "properties": {"norad_id": 40894, "name": "GAOFEN-9 01", "group": "resource", "lat": -41.826608705241824, "lon": -165.31928291521209, "alt_km": 648.36642625495, "timestamp": "2025-12-08T10:52:02.606652+00:00", "meta": {"OBJECT_NAME": "GAOFEN-9 01", "OBJECT_ID": "2015-047A", "EPOCH": "2025-12-07T22:31:45.980832", "MEAN_MOTION": 14.82403663, "ECCENTRICITY": 0.00287054, "INCLINATION": 97.6544, "RA_OF_ASC_NODE": 21.1015, "ARG_OF_PERICENTER": 49.5211, "MEAN_ANOMALY": 310.8498, "EPHEMERIS_TYPE": 0, "CLASSIFICATION_TYPE": "U", "NORAD_CAT_ID": 40894, "ELEMENT_SET_NO": 999, "REV_AT_EPOCH": 55185, "BSTAR": 0.00023626054, "MEAN_MOTION_DOT": 1.855e-05, "MEAN_MOTION_DDOT": 0}, "tle": {"line1": "1 40894U 15047A   25341.93872663  .00001855  00000+0  23626-3 0  9991", "line2": "2 40894  97.6544  21.1015 0028705  49.5211 310.8498 14.82403663551850"}}, "geometry": {"type": "Point", "coordinates": [-165.31928291521209, -41.826608705241824]}}, {"type": "Feature", "properties": {"norad_id": 41026, "name": "YAOGAN-28", "group": "resource", "lat": 82.48199328468957, "lon": 44.71543781943389, "alt_km": 480.4026755715922, "timestamp": "2025-12-08T10:52:02.606662+00:00", "meta": {"OBJECT_NAME": "YAOGAN-28", "OBJECT_ID": "2015-064A", "EPOCH": "2025-12-07T21:52:38.877312", "MEAN_MOTION": 15.2422921, "ECCENTRICITY": 0.00121936, "INCLINATION": 97.281, "RA_OF_ASC_NODE": 119.8409, "ARG_OF_PERICENTER": 141.7422, "MEAN_ANOMALY": 218.4683, "EPHEMERIS_TYPE": 0, "CLASSIFICATION_TYPE": "U", "NORAD_CAT_ID": 41026, "ELEMENT_SET_NO": 999, "REV_AT_EPOCH": 56151, "BSTAR": 0.00044301505, "MEAN_MOTION_DOT": 0.00010762, "MEAN_MOTION_DDOT": 0}, "tle": {"line1": "1 41026U 15064A   25341.91156108  .00010762  00000+0  44302-3 0  9996", "line2": "2 41026  97.2810 119.8409 0012193 141.7422 218.4683 15.24229210561519"}}, "geometry": {"type": "Point", "coordinates": [44.71543781943389, 82.48199328468957]}}, {"type": "Feature", "properties": {"norad_id": 41038, "name": "YAOGAN-29", "group": "resource", "lat": 74.99237150915705, "lon": -142.65003360109262, "alt_km": 613.2386434646123, "timestamp": "2025-12-08T10:52:02.606673+00:00", "meta": {"OBJECT_NAME": "YAOGAN-29", "OBJECT_ID": "2015-069A", "EPOCH": "2025-12-07T23:04:10.986528", "MEAN_MOTION": 14.82874098, "ECCENTRICITY": 4.077e-05, "INCLINATION": 98.0222, "RA_OF_ASC_NODE": 5.1175, "ARG_OF_PERICENTER": 351.5246, "MEAN_ANOMALY": 8.5961, "EPHEMERIS_TYPE": 0, "CLASSIFICATION_TYPE": "U", "NORAD_CAT_ID": 41038, "ELEMENT_SET_NO": 999, "REV_AT_EPOCH": 54228, "BSTAR": 0.00010137294, "MEAN_MOTION_DOT": 7.67e-06, "MEAN_MOTION_DDOT": 0}, "tle": {"line1": "1 41038U 15069A   25341.96123827  .00000767  00000+0  10137-3 0  9994", "line2": "2 41038  98.0222   5.1175 0000407 351.5246   8.5961 14.82874098542288"}}, "geometry": {"type": "Point", "coordinates": [-142.65003360109262, 74.99237150915705]}}, {"type": "Feature", "properties": {"norad_id": 41167, "name": "KENT RIDGE 1", "group": "resource", "lat": 8.14186726887429, "lon": -84.69233517559728, "alt_km": 492.45550410381384, "timestamp": "2025-12-08T10:52:02.606683+00:00", "meta": {"OBJECT_NAME": "KENT RIDGE 1", "OBJECT_ID": "2015-077B", "EPOCH": "2025-12-07T22:08:09.909024", "MEAN_MOTION": 15.21577849, "ECCENTRICITY": 0.00085583, "INCLINATION": 14.9791, "RA_OF_ASC_NODE": 246.8888, "ARG_OF_PERICENTER": 62.424, "MEAN_ANOMALY": 297.695, "EPHEMERIS_TYPE": 0, "CLASSIFICATION_TYPE": "U", "NORAD_CAT_ID": 41167, "ELEMENT_SET_NO": 999, "REV_AT_EPOCH": 55190, "BSTAR": 0.00023328058, "MEAN_MOTION_DOT": 6.183e-05, "MEAN_MOTION_DDOT": 0}, "tle": {"line1": "1 41167U 15077B   25341.92233691  .00006183  00000+0  23328-3 0  9997", "line2": "2 41167  14.9791 246.8888 0008558  62.4240 297.6950 15.21577849551907"}}, "geometry": {"type": "Point", "coordinates": [-84.69233517559728, 8.14186726887429]}}, {"type": "Feature", "properties": {"norad_id": 41194, "name": "GAOFEN-4", "group": "resource", "lat": -0.15504439316979574, "lon": -13.81216615749024, "alt_km": 35800.20910427866, "timestamp": "2025-12-08T10:52:02.606696+00:00", "meta": {"OBJECT_NAME": "GAOFEN-4", "OBJECT_ID": "2015-083A", "EPOCH": "2025-12-07T22:09:38.469888", "MEAN_MOTION": 1.00271606, "ECCENTRICITY": 0.00035574, "INCLINATION": 0.1578, "RA_OF_ASC_NODE": 81.0115, "ARG_OF_PERICENTER": 105.6541, "MEAN_ANOMALY": 328.3908, "EPHEMERIS_TYPE": 0, "CLASSIFICATION_TYPE": "U", "NORAD_CAT_ID": 41194, "ELEMENT_SET_NO": 999, "REV_AT_EPOCH": 3661, "BSTAR": 0, "MEAN_MOTION_DOT": -3.32e-06, "MEAN_MOTION_DDOT": 0}, "tle": {"line1": "1 41194U 15083A   25341.92336192 -.00000332  00000+0  00000+0 0  9993", "line2": "2 41194   0.1578  81.0115 0003557 105.6541 328.3908  1.00271606 36612"}}, "geometry": {"type": "Point", "coordinates": [-13.81216615749024, -0.15504439316979574]}}, {"type": "Feature", "properties": {"norad_id": 41240, "name": "JASON-3", "group": "resource", "lat": -53.46825695614962, "lon": 23.723767695263852, "alt_km": 1312.2368806144395, "timestamp": "2025-12-08T10:52:02.606707+00:00", "meta": {"OBJECT_NAME": "JASON-3", "OBJECT_ID": "2016-002A", "EPOCH": "2025-12-07T22:25:56.099712", "MEAN_MOTION": 12.87626271, "ECCENTRICITY": 0.00071261, "INCLINATION": 66.039, "RA_OF_ASC_NODE": 167.9265, "ARG_OF_PERICENTER": 270.5103, "MEAN_ANOMALY": 89.5099, "EPHEMERIS_TYPE": 0, "CLASSIFICATION_TYPE": "U", "NORAD_CAT_ID": 41240, "ELEMENT_SET_NO": 999, "REV_AT_EPOCH": 46262, "BSTAR": 1.0545739e-05, "MEAN_MOTION_DOT": -6e-07, "MEAN_MOTION_DDOT": 0}, "tle": {"line1": "1 41240U 16002A   25341.93467708 -.00000060  00000+0  10546-4 0  9995", "line2": "2 41240  66.0390 167.9265 0007126 270.5103  89.5099 12.87626271462629"}}, "geometry": {"type": "Point", "coordinates": [23.723767695263852, -53.46825695614962]}}]}